{"spkid": "50789654", "covariance": {"epoch": "2458265.5", "labels": ["e", "q", "tp", "node", "peri", "i"], "data": [["1.13452682845485E-14", "-1.444671590885506E-14", "-9.25819591011542E-13", "-1.70407916168916E-13", "9.410682583166269E-13", "1.46960548027644E-13"], ["-1.444671590885506E-14", "1.846130738666215E-14", "1.14692769856839E-12", "2.13940183075901E-13", "-1.211482625346408E-12", "-1.881799489535021E-13"], ["-9.25819591011542E-13", "1.14692769856839E-12", "2.510045347275419E-10", "2.34426958786982E-11", "-1.660226696324521E-11", "-2.583187677540407E-12"], ["-1.70407916168916E-13", "2.13940183075901E-13", "2.34426958786982E-11", "5.172474330226814E-10", "-5.084838280717976E-10", "-1.397451041275906E-10"], ["9.410682583166269E-13", "-1.211482625346408E-12", "-1.660226696324521E-11", "-5.084838280717976E-10", "5.994337271230746E-10", "1.493144982331868E-10"], ["1.46960548027644E-13", "-1.881799489535021E-13", "-2.583187677540407E-12", "-1.397451041275906E-10", "1.493144982331868E-10", "1.506015701862149E-10"]], "elements": [{"label": "e", "units": null, "value": ".6770161505550224", "title": "eccentricity", "sigma": 1.06514169407401e-07, "name": "e"}, {"sigma": 1.3587239376217e-07, "name": "q", "units": "au", "value": ".4160928511045985", "title": "perihelion distance", "label": "q"}, {"units": "TDB", "value": "2458154.757535899031", "title": "time of perihelion passage", "sigma": 1.58431226318407e-05, "name": "tp", "label": "tp"}, {"sigma": 2.27430743968946e-05, "name": "om", "title": "longitude of the ascending node", "value": "253.7688698694574", "units": "deg", "label": "node"}, {"units": "deg", "title": "argument of perihelion", "value": "298.05815922529", "name": "w", "sigma": 2.4483335702536e-05, "label": "peri"}, {"name": "i", "sigma": 1.22719831399092e-05, "units": "deg", "title": "inclination", "value": "12.08114148597791", "label": "i"}]}, "elements": [{"label": "e", "title": "eccentricity", "value": ".6769539226783802", "units": null, "sigma": "1.0644E-7", "name": "e"}, {"label": "a", "sigma": "2.4736E-8", "name": "a", "value": "1.288398219182715", "title": "semi-major axis", "units": "au"}, {"sigma": "1.3578E-7", "name": "q", "units": "au", "value": ".4162119907351366", "title": "perihelion distance", "label": "q"}, {"label": "i", "units": "deg", "title": "inclination; angle with respect to x-y ecliptic plane", "value": "12.08956468656395", "sigma": "1.2286E-5", "name": "i"}, {"title": "longitude of the ascending node", "value": "253.6223472489278", "units": "deg", "sigma": "2.2685E-5", "name": "om", "label": "node"}, {"label": "peri", "name": "w", "sigma": "2.4438E-5", "units": "deg", "value": "298.21098024", "title": "argument of perihelion"}, {"label": "M", "name": "ma", "sigma": "5.714E-5", "title": "mean anomaly", "value": "252.6322964564112", "units": "deg"}, {"title": "time of perihelion passage", "value": "2461359.810633321758", "units": "TDB", "name": "tp", "sigma": "8.9301E-5", "label": "tp"}, {"units": "d", "value": "534.162751954076", "title": "sidereal orbital period", "name": "per", "sigma": "1.5383E-5", "label": "period"}, {"label": "n", "title": "mean motion", "value": ".6739518970258535", "units": "deg/d", "sigma": "1.9409E-8", "name": "n"}, {"label": "Q", "sigma": "4.1481E-8", "name": "ad", "title": "aphelion distance", "value": "2.160584447630293", "units": "au"}], "epoch": "2461200.5"}